{"type": "FeatureCollection", "features": [ {"type": "Feature", "properties": {"norad_id": 64202, "name": "GPS BIII-8  (PRN 21)", "group": "gnss", "lat": -54.92695290308288, "lon": -58.02625116960668, "alt_km": 20177.520696046086, "timestamp": "2025-12-12T11:38:31.655597+00:00", "meta": {"OBJECT_NAME": "GPS BIII-8  (PRN 21)", "OBJECT_ID": "2025-116A", "EPOCH": "2025-12-12T02:49:55.740000", "MEAN_MOTION": 2.00558325, "ECCENTRICITY": 0.000556, "INCLINATION": 55.1053, "RA_OF_ASC_NODE": 38.6656, "ARG_OF_PERICENTER": 307.8471, "MEAN_ANOMALY": 53.3313, "EPHEMERIS_TYPE": 0, "CLASSIFICATION_TYPE": "U", "NORAD_CAT_ID": 64202, "ELEMENT_SET_NO": 999, "REV_AT_EPOCH": 412, "BSTAR": 0, "MEAN_MOTION_DOT": -9.7e-07, "MEAN_MOTION_DDOT": 0}, "tle": {"line1": "1 64202U 25116A   25346.11800625 -.00000097  00000+0  00000+0 0  9997", "line2": "2 64202  55.1053  38.6656 0005560 307.8471  53.3313  2.00558325  4120"}}, "geometry": {"type": "Point", "coordinates": [-58.02625116960668, -54.92695290308288]}}, {"type": "Feature", "properties": {"norad_id": 65590, "name": "COSMOS 2596 (708K)", "group": "gnss", "lat": -20.015863148012137, "lon": 151.37275164714168, "alt_km": 19141.409995800568, "timestamp": "2025-12-12T11:38:31.655609+00:00", "meta": {"OBJECT_NAME": "COSMOS 2596 (708K)", "OBJECT_ID": "2025-206B", "EPOCH": "2025-12-10T13:06:28.122048", "MEAN_MOTION": 2.13100337, "ECCENTRICITY": 0.00140136, "INCLINATION": 64.7453, "RA_OF_ASC_NODE": 321.5499, "ARG_OF_PERICENTER": 305.8933, "MEAN_ANOMALY": 208.9804, "EPHEMERIS_TYPE": 0, "CLASSIFICATION_TYPE": "U", "NORAD_CAT_ID": 65590, "ELEMENT_SET_NO": 999, "REV_AT_EPOCH": 189, "BSTAR": 0, "MEAN_MOTION_DOT": -5.2e-07, "MEAN_MOTION_DDOT": 0}, "tle": {"line1": "1 65590U 25206B   25344.54615882 -.00000052  00000+0  00000+0 0  9993", "line2": "2 65590  64.7453 321.5499 0014013 305.8933 208.9804  2.13100337  1898"}}, "geometry": {"type": "Point", "coordinates": [151.37275164714168, -20.015863148012137]}}]}